[{"OBJECT_NAME":"FLOCK 4G-15","OBJECT_ID":"2025-009BX","EPOCH":"2026-03-09T17:13:37.807680","MEAN_MOTION":15.27266411,"ECCENTRICITY":0.00036988,"INCLINATION":97.4054,"RA_OF_ASC_NODE":151.1927,"ARG_OF_PERICENTER":316.8208,"MEAN_ANOMALY":43.274,"EPHEMERIS_TYPE":0,"CLASSIFICATION_TYPE":"U","NORAD_CAT_ID":62678,"ELEMENT_SET_NO":999,"REV_AT_EPOCH":12135,"BSTAR":0.00047574812,"MEAN_MOTION_DOT":0.00012647,"MEAN_MOTION_DDOT":0},{"OBJECT_NAME":"STARLINK-35803","OBJECT_ID":"2025-268M","EPOCH":"2026-03-09T02:23:23.875296","MEAN_MOTION":15.27571654,"ECCENTRICITY":0.00018787,"INCLINATION":43.0033,"RA_OF_ASC_NODE":350.0373,"ARG_OF_PERICENTER":251.0604,"MEAN_ANOMALY":109.0044,"EPHEMERIS_TYPE":0,"CLASSIFICATION_TYPE":"U","NORAD_CAT_ID":66568,"ELEMENT_SET_NO":999,"REV_AT_EPOCH":1787,"BSTAR":0.0015410089,"MEAN_MOTION_DOT":0.00042377,"MEAN_MOTION_DDOT":0}]
