FLOCK 4G-15             
1 62678U 25009BX  26068.71779869  .00012647  00000+0  47575-3 0  9991
2 62678  97.4054 151.1927 0003699 316.8208  43.2740 15.27266411121358
STARLINK-35803          
1 66568U 25268M   26068.09958189  .00042377  00000+0  15410-2 0  9990
2 66568  43.0033 350.0373 0001878 251.0604 109.0044 15.27571654 17873
